#cP2022  3  5  0  0  0.00000000     576 d+D   IGb14 EXT AIUB
## 2199 518400.00000000   300.00000000 59643 0.0000000000000
+   69   G01G02G03G04G05G06G07G08G09G10G11G12G13G14G15G16G17
+        G18G19G20G21G22G23G24G25G26G28G29G30G31G32R01R02R03
+        R04R05R07R08R09R11R12R13R14R15R17R18R19R20R21R22R24
+        E01E02E10E11E12E13E14E15E18E21E25E26E27E30E31E33E34
+        E36  0  0  0  0  0  0  0  0  0  0  0  0  0  0  0  0
++         5  7  6  7  7  7  7  6  6  5  8  7  6  7  7  7  7
++         8  7  7  7  7  7  7  6  8  7  7  6  7  6  9  7  8
++         8  8  8  7  6  6  8  8  6  6  8  7  9  9  8  7  8
++         5  6  7  8  7  7  7  6  5  6  6  7  9  6  8  8  7
++         6  0  0  0  0  0  0  0  0  0  0  0  0  0  0  0  0
%c M  cc GPS ccc cccc cccc cccc cccc ccccc ccccc ccccc ccccc
%c cc cc ccc ccc cccc cccc cccc cccc ccccc ccccc ccccc ccccc
%f  1.2500000  1.025000000  0.00000000000  0.000000000000000
%f  0.0000000  0.000000000  0.00000000000  0.000000000000000
%i    0    0    0    0      0      0      0      0         0
%i    0    0    0    0      0      0      0      0         0
/* Center for Orbit Determination in Europe (CODE)          
/* Ultra-rapid GRE orbits starting year-day 22064 00 hour   
/* Observed/predicted: 24/24 hours (data used up to 064X)   
/* PCV:IGS14      OL/AL:FES2014b NONE     YN ORB:CoN CLK:BRD
*  2022  3  5 17 10  0.00000000
PG01   5450.385594 -17453.733387 -19412.629852    416.178696
PG02 -21165.166854  16046.226779   2610.773862   -651.859737
PG03  -5197.482588 -18148.800300 -18829.941230   -149.885115
PG04    606.550844 -26480.108053   1212.418491   -185.660757
PG05 -11359.161672  10790.250258  21304.318547    -73.615603
PG06 -23317.336956   3497.356707 -12236.546956    221.464221
PG07 -11700.149939 -11130.713790  21534.212524    314.347683
PG08   6478.396815 -23799.948713   9341.328734    -58.672091
PG09  -8004.093547 -22583.058073  11358.053003   -351.298400
PG10  23873.670975  11327.439185  -3807.607285   -338.081497
PG11 -23284.376962  12628.387297   1873.147377    -70.768299
PG12    739.763343  17527.243640 -20247.164875   -180.364712
PG13 -12881.621035  17914.985742  14511.764450    271.891429
PG14 -23233.655304 -12517.326202  -3333.719136    -90.804365
PG15  -3509.054626  24727.128474   8151.797860    -79.085277
PG16  15746.024574  -5805.737001  20426.789398   -477.125410
PG17 -13147.107745  -9315.710062 -20673.966505    583.314857
PG18  11078.019337  10850.119393  21571.937148    226.626683
PG19 -14928.292190   -983.929363 -22201.784325    127.088798
PG20 -19373.453825   5563.977599  17173.385845    516.432791
PG21  14551.383040 -18620.576589 -10773.451923    158.986135
PG22  15159.800402  -2829.115196 -21201.934178    222.947586
PG23  19577.849686  16625.422324   6948.364906     -4.233204
PG24  -8334.200854  19562.308378 -15954.006002    270.536327
PG25  13936.756925  18928.742934 -12920.163309    294.197894
PG26  23382.699212   1992.763529  12645.412265    188.377539
PG28 -22669.065236  -7510.602687 -10861.270792    387.013493
PG29   4367.058016  24184.383938   9956.499335   -487.773221
PG30 -19044.800991  -4961.626169  18017.558490   -517.031403
PG31  24461.738794  -4790.177188  -9944.846878   -167.577239
PG32  14929.331284   4721.912811 -21339.401733    -79.076551
PR01  13438.585918   4141.045798 -21274.109248      7.172560
PR02   3592.052917 -15057.243719 -20208.020905    511.587227
PR03  -7423.946954 -23443.281383  -6625.419578     52.599903
PR04 -13941.397814 -18645.601568  10443.047896    130.554429
PR05 -12817.509204  -3578.901836  21770.656835     88.835550
PR07   7758.525258  23573.289202   6045.593273     32.326622
PR08  14029.112344  18586.352800 -10383.017700    -63.867719
PR09 -14355.418356   8564.923899 -19281.631719     42.768038
PR11  20338.482518   7769.183695 -13276.642874     44.260592
PR12  25053.372458   -266.240689   4870.771878     17.344666
PR13  15375.899087  -7901.245118  18736.983821    -19.068807
PR14  -4560.360563 -11267.322245  22431.986180     75.050099
PR15 -20744.346595  -7837.522294  12616.721821     97.761196
PR17   5382.213010 -19644.468821 -15365.720998    507.076435
PR18  -6910.123183  -8152.890719 -23140.759795    109.337500
PR19 -15434.758896   6121.905150 -19362.874518   -180.475216
PR20 -16107.684923  19720.455962  -1903.211986    -66.138379
PR21  -4445.883570  18935.976060  16494.068147   -282.928026
PR22   7339.498653   7508.626559  23239.619191   -168.673985
PR24  15448.949466 -20265.989284   1228.614111     83.012169
PE01 -20344.599745 -17878.546104  11924.255312   -591.032359
PE02  20479.687635  17843.443431 -11797.660267    284.301277
PE10 -25543.926775  11818.384726  -9173.529793   -498.796373
PE11 -23324.076269  18216.325250   1008.575275   4304.875019
PE12 -23751.501129   3690.108688 -17288.310143   4728.475796
PE13  23540.814088 -17930.417164   -331.491463    427.043602
PE14 -12343.741882  21217.823091 -12795.922356  -1767.637418
PE15  23630.014586  -3635.275782  17454.533244    759.585533
PE18   1694.263230 -29884.047530  -1466.420434  -1719.401073
PE21  -2201.509340 -18216.579731  23218.069040   -720.790048
PE25   1932.997139  18158.149422 -23298.703614   -565.755934
PE26   8668.224989 -21494.107099 -18402.699183   -877.621137
PE27  18293.073552  -8151.724993  21798.730512   -246.374367
PE30  27882.354506   7503.491382   6551.609644   -324.351268
PE31 -27835.711769  -6614.910426  -7568.488309   -493.090679
PE33  -9803.194976 -12717.617667 -24858.420519   -458.850067
PE34  10012.301887  12565.314680  24858.789523   -505.153817
PE36  -9626.941491  21605.613684  17811.419666   -341.072350
*  2022  3  5 17 15  0.00000000
PG01   6092.573235 -17767.662425 -18913.288243    416.175933
PG02 -21254.852833  16015.227631   1662.170965   -651.859908
PG03  -4561.847216 -17813.260804 -19308.339685   -149.890265
PG04    693.786963 -26504.162019    258.218472   -185.660007
PG05 -12073.233078  10389.155471  21116.035507    -73.616013
PG06 -22919.849846   3219.581029 -13031.145375    221.467973
PG07 -11008.798249 -11524.309174  21679.276662    314.348365
PG08   6563.168090 -23424.059028  10200.915359    -58.672568
PG09  -7928.485324 -23004.694106  10539.445448   -351.297820
PG10  23953.508373  11450.703648  -2864.292743   -338.084840
PG11 -23369.220054  12577.073378    921.420265    -70.765298
PG12    101.301398  17116.785023 -20609.319580   -180.366417
PG13 -12859.199015  17336.434095  15214.848875    271.893304
PG14 -23276.671729 -12651.367307  -2396.000468    -90.805559
PG15  -3662.512904  24394.626898   9008.988657    -79.084391
PG16  16370.451664  -5328.721352  20081.178146   -477.126774
PG17 -13064.025417 -10121.782462 -20350.427756    583.316358
PG18  10357.952557  11250.118959  21721.260617    226.624125
PG19 -14835.849264  -1804.457255 -22217.794218    127.090299
PG20 -19950.402788   5261.794083  16591.027564    516.432757
PG21  14961.937782 -18782.542593  -9928.911659    158.986306
PG22  15098.179058  -1991.501490 -21343.520077    222.949325
PG23  19297.037812  16551.839017   7847.130946     -4.234193
PG24  -8866.233652  19822.968605 -15308.543637    270.535441
PG25  13482.731220  18735.474317 -13670.217085    294.199463
PG26  23761.409301   2281.474119  11881.774367    188.378460
PG28 -22966.571137  -7820.795192 -10017.802543    387.011003
PG29   4276.790938  24542.486213   9083.729023   -487.774585
PG30 -18461.459535  -5336.070635  18505.562351   -517.032051
PG31  24154.113300  -4549.408294 -10771.740189   -167.577751
PG32  14913.108012   5540.421451 -21159.909414    -79.078699
PR01  13845.233371   4905.262689 -20846.355025      7.172506
PR02   3929.935456 -14282.807680 -20701.919558    511.587358
PR03  -7337.762901 -23156.662409  -7645.227306     52.599983
PR04 -14161.101033 -18992.869090   9473.544940    130.554922
PR05 -13212.052841  -4372.360185  21385.608103     88.836054
PR07   7687.844007  23310.892505   7071.796536     32.326895
PR08  14246.034450  18936.567219  -9416.085281    -63.867875
PR09 -15134.719719   8538.658201 -18690.621210     42.768607
PR11  19778.302705   7694.625607 -14138.279829     44.260280
PR12  25233.811718   -299.381412   3820.769713     17.344692
PR13  16134.082557  -7881.982871  18097.563685    -19.069124
PR14  -3638.176220 -11195.885324  22635.057980     75.050260
PR15 -20212.880287  -7761.126200  13496.814467     97.761116
PR17   5689.388109 -20180.212152 -14540.013209    507.077425
PR18  -6369.928685  -8935.577117 -23004.879151    109.337804
PR19 -14918.636660   5497.340595 -19945.831797   -180.475663
PR20 -15984.622050  19686.465173  -2980.397613    -66.138488
PR21  -4783.647521  19508.451764  15713.386545   -282.928961
PR22   6791.705803   8291.097558  23142.878147   -168.674752
PR24  15362.111912 -20239.737936   2299.520078     83.012712
PE01 -20013.433646 -17709.261431  12711.270802   -591.034564
PE02  20153.041028  17675.140858 -12586.992207    284.302050
PE10 -25286.486307  11678.509716 -10026.434699   -498.797078
PE11 -23308.308380  18264.394174     86.298830   4304.846996
PE12 -23309.095215   3394.936539 -17938.001988   4728.470136
PE13  23507.467218 -17967.763697    593.456869    427.043670
PE14 -12481.309601  20898.693150 -13566.686625  -1767.641422
PE15  23183.831724  -3336.884620  18101.116174    759.584833
PE18   1701.134501 -29755.347020   -656.446619  -1719.387669
PE21  -1557.782485 -17932.822545  23489.631452   -720.790741
PE25   1287.635397  17873.665085 -23561.510232   -565.756314
PE26   9084.016795 -21848.428729 -17774.326184   -877.634400
PE27  18896.056250  -7909.223686  21369.955844   -246.376958
PE30  28061.943009   7552.595548   5671.823188   -324.360491
PE31 -28043.907671  -6674.414851  -6697.571792   -493.090869
PE33  -9208.731420 -13174.462404 -24847.480204   -458.849978
PE34   9418.703397  13022.821346  24855.304596   -505.154400
PE36 -10022.756554  21954.832924  17154.013570   -341.073936
EOF
